{"type": "FeatureCollection", "features": [ {"type": "Feature", "properties": {"norad_id": 67018, "name": "STARLINK-36106", "group": "last-30-days", "lat": 34.01810063131738, "lon": 110.50342394918384, "alt_km": 285.5029628815928, "timestamp": "2025-12-19T06:59:42.653174+00:00", "meta": {"OBJECT_NAME": "STARLINK-36106", "OBJECT_ID": "2025-293R", "EPOCH": "2025-12-18T22:52:27.954912", "MEAN_MOTION": 15.95945427, "ECCENTRICITY": 0.00051513, "INCLINATION": 69.9939, "RA_OF_ASC_NODE": 305.7285, "ARG_OF_PERICENTER": 272.0477, "MEAN_ANOMALY": 88.0142, "EPHEMERIS_TYPE": 0, "CLASSIFICATION_TYPE": "U", "NORAD_CAT_ID": 67018, "ELEMENT_SET_NO": 999, "REV_AT_EPOCH": 260, "BSTAR": -0.00053313418, "MEAN_MOTION_DOT": -0.00219904, "MEAN_MOTION_DDOT": 2.0815056e-05}, "tle": {"line1": "1 67018U 25293R   25352.95310133 -.00219904  20815-4 -53313-3 0  9990", "line2": "2 67018  69.9939 305.7285 0005151 272.0477  88.0142 15.95945427  2602"}}, "geometry": {"type": "Point", "coordinates": [110.50342394918384, 34.01810063131738]}}, {"type": "Feature", "properties": {"norad_id": 67019, "name": "STARLINK-35688", "group": "last-30-days", "lat": 30.66833836701568, "lon": 112.25711624765115, "alt_km": 279.376810070381, "timestamp": "2025-12-19T06:59:42.653184+00:00", "meta": {"OBJECT_NAME": "STARLINK-35688", "OBJECT_ID": "2025-293S", "EPOCH": "2025-12-18T21:21:44.643456", "MEAN_MOTION": 15.96806815, "ECCENTRICITY": 0.00051486, "INCLINATION": 69.9939, "RA_OF_ASC_NODE": 305.9097, "ARG_OF_PERICENTER": 237.4827, "MEAN_ANOMALY": 122.5886, "EPHEMERIS_TYPE": 0, "CLASSIFICATION_TYPE": "U", "NORAD_CAT_ID": 67019, "ELEMENT_SET_NO": 999, "REV_AT_EPOCH": 259, "BSTAR": 0.0018843594, "MEAN_MOTION_DOT": 0.00805323, "MEAN_MOTION_DDOT": 0.00029248439}, "tle": {"line1": "1 67019U 25293S   25352.89010004  .00805323  29248-3  18844-2 0  9999", "line2": "2 67019  69.9939 305.9097 0005148 237.4827 122.5886 15.96806815  2591"}}, "geometry": {"type": "Point", "coordinates": [112.25711624765115, 30.66833836701568]}}, {"type": "Feature", "properties": {"norad_id": 67020, "name": "STARLINK-36172", "group": "last-30-days", "lat": 29.81731004598289, "lon": 112.68278942469718, "alt_km": 285.3343424803061, "timestamp": "2025-12-19T06:59:42.653195+00:00", "meta": {"OBJECT_NAME": "STARLINK-36172", "OBJECT_ID": "2025-293T", "EPOCH": "2025-12-18T22:51:22.090464", "MEAN_MOTION": 15.96003581, "ECCENTRICITY": 0.00050084, "INCLINATION": 69.9943, "RA_OF_ASC_NODE": 305.7262, "ARG_OF_PERICENTER": 275.7801, "MEAN_ANOMALY": 84.2837, "EPHEMERIS_TYPE": 0, "CLASSIFICATION_TYPE": "U", "NORAD_CAT_ID": 67020, "ELEMENT_SET_NO": 999, "REV_AT_EPOCH": 260, "BSTAR": 0.00025933749, "MEAN_MOTION_DOT": 0.00105452, "MEAN_MOTION_DDOT": 8.240126e-06}, "tle": {"line1": "1 67020U 25293T   25352.95233901  .00105452  82401-5  25934-3 0  9998", "line2": "2 67020  69.9943 305.7262 0005008 275.7801  84.2837 15.96003581  2603"}}, "geometry": {"type": "Point", "coordinates": [112.68278942469718, 29.81731004598289]}}, {"type": "Feature", "properties": {"norad_id": 67021, "name": "STARLINK-36184", "group": "last-30-days", "lat": 25.865832424114632, "lon": 114.55688496534245, "alt_km": 275.8881535034461, "timestamp": "2025-12-19T06:59:42.653205+00:00", "meta": {"OBJECT_NAME": "STARLINK-36184", "OBJECT_ID": "2025-293U", "EPOCH": "2025-12-18T21:20:33.728064", "MEAN_MOTION": 15.9715993, "ECCENTRICITY": 0.00066687, "INCLINATION": 69.9951, "RA_OF_ASC_NODE": 305.9084, "ARG_OF_PERICENTER": 190.0589, "MEAN_ANOMALY": 170.0488, "EPHEMERIS_TYPE": 0, "CLASSIFICATION_TYPE": "U", "NORAD_CAT_ID": 67021, "ELEMENT_SET_NO": 999, "REV_AT_EPOCH": 259, "BSTAR": 0.001574286, "MEAN_MOTION_DOT": 0.00687284, "MEAN_MOTION_DDOT": 0.00020938473}, "tle": {"line1": "1 67021U 25293U   25352.88927926  .00687284  20938-3  15743-2 0  9997", "line2": "2 67021  69.9951 305.9084 0006668 190.0589 170.0488 15.97159930  2597"}}, "geometry": {"type": "Point", "coordinates": [114.55688496534245, 25.865832424114632]}}, {"type": "Feature", "properties": {"norad_id": 67022, "name": "STARLINK-36209", "group": "last-30-days", "lat": 23.57037276644764, "lon": 115.5794134575141, "alt_km": 279.56720878196666, "timestamp": "2025-12-19T06:59:42.653215+00:00", "meta": {"OBJECT_NAME": "STARLINK-36209", "OBJECT_ID": "2025-293V", "EPOCH": "2025-12-18T21:19:54.213024", "MEAN_MOTION": 15.97099477, "ECCENTRICITY": 0.00067112, "INCLINATION": 69.9937, "RA_OF_ASC_NODE": 305.9046, "ARG_OF_PERICENTER": 240.9661, "MEAN_ANOMALY": 119.0877, "EPHEMERIS_TYPE": 0, "CLASSIFICATION_TYPE": "U", "NORAD_CAT_ID": 67022, "ELEMENT_SET_NO": 999, "REV_AT_EPOCH": 259, "BSTAR": 0.0016422991, "MEAN_MOTION_DOT": 0.00714481, "MEAN_MOTION_DDOT": 0.00022718276}, "tle": {"line1": "1 67022U 25293V   25352.88882191  .00714481  22718-3  16423-2 0  9996", "line2": "2 67022  69.9937 305.9046 0006711 240.9661 119.0877 15.97099477  2599"}}, "geometry": {"type": "Point", "coordinates": [115.5794134575141, 23.57037276644764]}}, {"type": "Feature", "properties": {"norad_id": 67023, "name": "STARLINK-36191", "group": "last-30-days", "lat": 22.993856761252673, "lon": 115.83032473496515, "alt_km": 285.539758534107, "timestamp": "2025-12-19T06:59:42.653228+00:00", "meta": {"OBJECT_NAME": "STARLINK-36191", "OBJECT_ID": "2025-293W", "EPOCH": "2025-12-18T22:49:35.859936", "MEAN_MOTION": 15.96221464, "ECCENTRICITY": 0.00054267, "INCLINATION": 69.9936, "RA_OF_ASC_NODE": 305.7196, "ARG_OF_PERICENTER": 279.2531, "MEAN_ANOMALY": 80.8064, "EPHEMERIS_TYPE": 0, "CLASSIFICATION_TYPE": "U", "NORAD_CAT_ID": 67023, "ELEMENT_SET_NO": 999, "REV_AT_EPOCH": 260, "BSTAR": 0.00059272804, "MEAN_MOTION_DOT": 0.00245512, "MEAN_MOTION_DDOT": 2.7561527e-05}, "tle": {"line1": "1 67023U 25293W   25352.95110949  .00245512  27562-4  59273-3 0  9998", "line2": "2 67023  69.9936 305.7196 0005426 279.2531  80.8064 15.96221464  2603"}}, "geometry": {"type": "Point", "coordinates": [115.83032473496515, 22.993856761252673]}}, {"type": "Feature", "properties": {"norad_id": 67024, "name": "STARLINK-36192", "group": "last-30-days", "lat": 19.443088895727826, "lon": 117.33125211958595, "alt_km": 279.49746002057327, "timestamp": "2025-12-19T06:59:42.653238+00:00", "meta": {"OBJECT_NAME": "STARLINK-36192", "OBJECT_ID": "2025-293X", "EPOCH": "2025-12-18T21:18:44.935776", "MEAN_MOTION": 15.97024441, "ECCENTRICITY": 0.00050321, "INCLINATION": 69.9942, "RA_OF_ASC_NODE": 305.9015, "ARG_OF_PERICENTER": 218.4439, "MEAN_ANOMALY": 141.6413, "EPHEMERIS_TYPE": 0, "CLASSIFICATION_TYPE": "U", "NORAD_CAT_ID": 67024, "ELEMENT_SET_NO": 999, "REV_AT_EPOCH": 259, "BSTAR": 0.0011680142, "MEAN_MOTION_DOT": 0.00506049, "MEAN_MOTION_DDOT": 0.00011066919}, "tle": {"line1": "1 67024U 25293X   25352.88802009  .00506049  11067-3  11680-2 0  9992", "line2": "2 67024  69.9942 305.9015 0005032 218.4439 141.6413 15.97024441  2597"}}, "geometry": {"type": "Point", "coordinates": [117.33125211958595, 19.443088895727826]}}, {"type": "Feature", "properties": {"norad_id": 67025, "name": "STARLINK-36178", "group": "last-30-days", "lat": 19.45470693143874, "lon": 117.32495085152496, "alt_km": 287.5187554035947, "timestamp": "2025-12-19T06:59:42.653248+00:00", "meta": {"OBJECT_NAME": "STARLINK-36178", "OBJECT_ID": "2025-293Y", "EPOCH": "2025-12-18T22:00:00.999936", "MEAN_MOTION": 15.96312451, "ECCENTRICITY": 0.00038587, "INCLINATION": 69.9936, "RA_OF_ASC_NODE": 305.8142, "ARG_OF_PERICENTER": 266.0576, "MEAN_ANOMALY": 260.5901, "EPHEMERIS_TYPE": 0, "CLASSIFICATION_TYPE": "U", "NORAD_CAT_ID": 67025, "ELEMENT_SET_NO": 999, "REV_AT_EPOCH": 130, "BSTAR": -0.0029401423, "MEAN_MOTION_DOT": -0.01223888, "MEAN_MOTION_DDOT": 0.00045866071}, "tle": {"line1": "1 67025U 25293Y   25352.91667824 -.01223888  45866-3 -29401-2 0  9995", "line2": "2 67025  69.9936 305.8142 0003858 266.0576 260.5901 15.96312451  1307"}}, "geometry": {"type": "Point", "coordinates": [117.32495085152496, 19.45470693143874]}}, {"type": "Feature", "properties": {"norad_id": 67026, "name": "STARLINK-36176", "group": "last-30-days", "lat": 14.456638021723238, "lon": 119.32369669711495, "alt_km": 285.6615309591043, "timestamp": "2025-12-19T06:59:42.653260+00:00", "meta": {"OBJECT_NAME": "STARLINK-36176", "OBJECT_ID": "2025-293Z", "EPOCH": "2025-12-18T22:47:22.029792", "MEAN_MOTION": 15.96621684, "ECCENTRICITY": 0.00052934, "INCLINATION": 69.993, "RA_OF_ASC_NODE": 305.7135, "ARG_OF_PERICENTER": 268.5604, "MEAN_ANOMALY": 91.4999, "EPHEMERIS_TYPE": 0, "CLASSIFICATION_TYPE": "U", "NORAD_CAT_ID": 67026, "ELEMENT_SET_NO": 999, "REV_AT_EPOCH": 260, "BSTAR": -0.00074223207, "MEAN_MOTION_DOT": -0.00317001, "MEAN_MOTION_DDOT": 3.877554e-05}, "tle": {"line1": "1 67026U 25293Z   25352.94956053 -.00317001  38776-4 -74223-3 0  9990", "line2": "2 67026  69.9930 305.7135 0005293 268.5604  91.4999 15.96621684  2600"}}, "geometry": {"type": "Point", "coordinates": [119.32369669711495, 14.456638021723238]}}, {"type": "Feature", "properties": {"norad_id": 67027, "name": "STARLINK-36171", "group": "last-30-days", "lat": 16.612403583803186, "lon": 118.4785546501763, "alt_km": 286.8569251094059, "timestamp": "2025-12-19T06:59:42.653273+00:00", "meta": {"OBJECT_NAME": "STARLINK-36171", "OBJECT_ID": "2025-293AA", "EPOCH": "2025-12-17T20:00:01.999872", "MEAN_MOTION": 15.98936546, "ECCENTRICITY": 0.00040721, "INCLINATION": 69.9925, "RA_OF_ASC_NODE": 308.9863, "ARG_OF_PERICENTER": 268.6099, "MEAN_ANOMALY": 151.7398, "EPHEMERIS_TYPE": 0, "CLASSIFICATION_TYPE": "U", "NORAD_CAT_ID": 67027, "ELEMENT_SET_NO": 999, "REV_AT_EPOCH": 238, "BSTAR": -0.0024887441, "MEAN_MOTION_DOT": -0.01197601, "MEAN_MOTION_DDOT": 0.00045322393}, "tle": {"line1": "1 67027U 25293AA  25351.83335648 -.01197601  45322-3 -24887-2 0  9996", "line2": "2 67027  69.9925 308.9863 0004072 268.6099 151.7398 15.98936546  2387"}}, "geometry": {"type": "Point", "coordinates": [118.4785546501763, 16.612403583803186]}}]}